[{"OBJECT_NAME":"TIANPING 2B","OBJECT_ID":"2022-032C","EPOCH":"2026-03-09T22:22:05.849760","MEAN_MOTION":15.01267566,"ECCENTRICITY":0.00208707,"INCLINATION":97.6053,"RA_OF_ASC_NODE":116.3222,"ARG_OF_PERICENTER":130.0797,"MEAN_ANOMALY":230.2261,"EPHEMERIS_TYPE":0,"CLASSIFICATION_TYPE":"U","NORAD_CAT_ID":52155,"ELEMENT_SET_NO":999,"REV_AT_EPOCH":21538,"BSTAR":0.00026542484,"MEAN_MOTION_DOT":3.368e-5,"MEAN_MOTION_DDOT":0},{"OBJECT_NAME":"STARLINK-34470","OBJECT_ID":"2025-142H","EPOCH":"2026-03-09T22:45:07.894656","MEAN_MOTION":14.98329357,"ECCENTRICITY":0.00025936,"INCLINATION":70.0014,"RA_OF_ASC_NODE":313.6141,"ARG_OF_PERICENTER":265.5374,"MEAN_ANOMALY":94.5489,"EPHEMERIS_TYPE":0,"CLASSIFICATION_TYPE":"U","NORAD_CAT_ID":64703,"ELEMENT_SET_NO":999,"REV_AT_EPOCH":3950,"BSTAR":0.00061597717,"MEAN_MOTION_DOT":7.264e-5,"MEAN_MOTION_DDOT":0}]
